STARLINK-35648          
1 66482U 25262AC  25330.00006944 -.01552101  00000+0 -69675-2 0  9990
2 66482  42.9978 170.5196 0001587 281.7321 225.8009 15.85865733  2796
STARLINK-35654          
1 66483U 25262AD  25330.00006944 -.01580978  00000+0 -71121-2 0  9993
2 66483  42.9976 170.5129 0001625 281.0841 228.9191 15.85874957  2945
STARLINK-35371          
1 66484U 25262AE  25330.00006944 -.01630878  00000+0 -73660-2 0  9999
2 66484  42.9979 170.5065 0001669 278.1292 234.5219 15.85884521  2945
STARLINK-34774          
1 66485U 25263A   25331.25002315 -.01291246  00000+0 -53819-2 0  9993
2 66485  42.9978 217.7779 0001969 274.9548  99.8983 15.87295994  3147
STARLINK-34844          
1 66486U 25263B   25331.25002315 -.01312080  00000+0 -55000-2 0  9998
2 66486  42.9973 217.7658 0002007 275.6291 103.7837 15.87224340  3090
STARLINK-34733          
1 66487U 25263C   25331.25002315 -.01325799  00000+0 -55714-2 0  9992
2 66487  42.9976 217.7579 0001896 276.6573 105.9831 15.87204615  3142
STARLINK-35515          
1 66488U 25263D   25331.25002315 -.01329160  00000+0 -55862-2 0  9993
2 66488  42.9976 217.7516 0001975 278.2039 106.8837 15.87208052  3142
STARLINK-35696          
1 66489U 25263E   25331.25002315 -.01338629  00000+0 -56324-2 0  9998
2 66489  42.9975 217.7446 0001971 274.6989 113.0751 15.87204951  3143
STARLINK-35693          
1 66490U 25263F   25331.25002315 -.01345800  00000+0 -56727-2 0  9996
2 66490  42.9976 217.7366 0001983 272.7691 118.1553 15.87184197  3144
STARLINK-35663          
1 66491U 25263G   25331.25002315 -.01362818  00000+0 -57499-2 0  9992
2 66491  42.9976 217.7246 0001938 273.4592 122.2058 15.87201427  3142
STARLINK-35673          
1 66492U 25263H   25331.25002315 -.01367305  00000+0 -57708-2 0  9992
2 66492  42.9976 217.7183 0001876 276.7806 121.3603 15.87204924  3149
STARLINK-35597          
1 66493U 25263J   25331.25002315 -.01363642  00000+0 -57582-2 0  9993
2 66493  42.9976 217.7109 0001970 274.9690 126.0934 15.87185921  3148
