CCSDS_OMM_VERS = 2.0
CREATION_DATE  = 
ORIGINATOR     = 

OBJECT_NAME    = STARLINK-35648
OBJECT_ID      = 2025-262AC
CENTER_NAME    = EARTH
REF_FRAME      = TEME
TIME_SYSTEM    = UTC
MEAN_ELEMENT_THEORY = SGP/SGP4

EPOCH          = 2025-11-26T00:00:05.999616
MEAN_MOTION    = 15.85865733
ECCENTRICITY   = .0001587
INCLINATION    = 42.9978
RA_OF_ASC_NODE = 170.5196
ARG_OF_PERICENTER = 281.7321
MEAN_ANOMALY   = 225.8009

EPHEMERIS_TYPE = 0
CLASSIFICATION_TYPE = U
NORAD_CAT_ID   = 66482
ELEMENT_SET_NO = 999
REV_AT_EPOCH   = 279
BSTAR          = -.69674856E-2
MEAN_MOTION_DOT = -.1552101E-1
MEAN_MOTION_DDOT = 0

CCSDS_OMM_VERS = 2.0
CREATION_DATE  = 
ORIGINATOR     = 

OBJECT_NAME    = STARLINK-35654
OBJECT_ID      = 2025-262AD
CENTER_NAME    = EARTH
REF_FRAME      = TEME
TIME_SYSTEM    = UTC
MEAN_ELEMENT_THEORY = SGP/SGP4

EPOCH          = 2025-11-26T00:00:05.999616
MEAN_MOTION    = 15.85874957
ECCENTRICITY   = .00016252
INCLINATION    = 42.9976
RA_OF_ASC_NODE = 170.5129
ARG_OF_PERICENTER = 281.0841
MEAN_ANOMALY   = 228.9191

EPHEMERIS_TYPE = 0
CLASSIFICATION_TYPE = U
NORAD_CAT_ID   = 66483
ELEMENT_SET_NO = 999
REV_AT_EPOCH   = 294
BSTAR          = -.71120638E-2
MEAN_MOTION_DOT = -.1580978E-1
MEAN_MOTION_DDOT = 0

CCSDS_OMM_VERS = 2.0
CREATION_DATE  = 
ORIGINATOR     = 

OBJECT_NAME    = STARLINK-35371
OBJECT_ID      = 2025-262AE
CENTER_NAME    = EARTH
REF_FRAME      = TEME
TIME_SYSTEM    = UTC
MEAN_ELEMENT_THEORY = SGP/SGP4

EPOCH          = 2025-11-26T00:00:05.999616
MEAN_MOTION    = 15.85884521
ECCENTRICITY   = .00016694
INCLINATION    = 42.9979
RA_OF_ASC_NODE = 170.5065
ARG_OF_PERICENTER = 278.1292
MEAN_ANOMALY   = 234.5219

EPHEMERIS_TYPE = 0
CLASSIFICATION_TYPE = U
NORAD_CAT_ID   = 66484
ELEMENT_SET_NO = 999
REV_AT_EPOCH   = 294
BSTAR          = -.73660043E-2
MEAN_MOTION_DOT = -.1630878E-1
MEAN_MOTION_DDOT = 0

CCSDS_OMM_VERS = 2.0
CREATION_DATE  = 
ORIGINATOR     = 

OBJECT_NAME    = STARLINK-34774
OBJECT_ID      = 2025-263A
CENTER_NAME    = EARTH
REF_FRAME      = TEME
TIME_SYSTEM    = UTC
MEAN_ELEMENT_THEORY = SGP/SGP4

EPOCH          = 2025-11-27T06:00:02.000160
MEAN_MOTION    = 15.87295994
ECCENTRICITY   = .00019693
INCLINATION    = 42.9978
RA_OF_ASC_NODE = 217.7779
ARG_OF_PERICENTER = 274.9548
MEAN_ANOMALY   = 99.8983

EPHEMERIS_TYPE = 0
CLASSIFICATION_TYPE = U
NORAD_CAT_ID   = 66485
ELEMENT_SET_NO = 999
REV_AT_EPOCH   = 314
BSTAR          = -.53818738E-2
MEAN_MOTION_DOT = -.1291246E-1
MEAN_MOTION_DDOT = 0

CCSDS_OMM_VERS = 2.0
CREATION_DATE  = 
ORIGINATOR     = 

OBJECT_NAME    = STARLINK-34844
OBJECT_ID      = 2025-263B
CENTER_NAME    = EARTH
REF_FRAME      = TEME
TIME_SYSTEM    = UTC
MEAN_ELEMENT_THEORY = SGP/SGP4

EPOCH          = 2025-11-27T06:00:02.000160
MEAN_MOTION    = 15.87224340
ECCENTRICITY   = .00020071
INCLINATION    = 42.9973
RA_OF_ASC_NODE = 217.7658
ARG_OF_PERICENTER = 275.6291
MEAN_ANOMALY   = 103.7837

EPHEMERIS_TYPE = 0
CLASSIFICATION_TYPE = U
NORAD_CAT_ID   = 66486
ELEMENT_SET_NO = 999
REV_AT_EPOCH   = 309
BSTAR          = -.5500046E-2
MEAN_MOTION_DOT = -.131208E-1
MEAN_MOTION_DDOT = 0

CCSDS_OMM_VERS = 2.0
CREATION_DATE  = 
ORIGINATOR     = 

OBJECT_NAME    = STARLINK-34733
OBJECT_ID      = 2025-263C
CENTER_NAME    = EARTH
REF_FRAME      = TEME
TIME_SYSTEM    = UTC
MEAN_ELEMENT_THEORY = SGP/SGP4

EPOCH          = 2025-11-27T06:00:02.000160
MEAN_MOTION    = 15.87204615
ECCENTRICITY   = .00018966
INCLINATION    = 42.9976
RA_OF_ASC_NODE = 217.7579
ARG_OF_PERICENTER = 276.6573
MEAN_ANOMALY   = 105.9831

EPHEMERIS_TYPE = 0
CLASSIFICATION_TYPE = U
NORAD_CAT_ID   = 66487
ELEMENT_SET_NO = 999
REV_AT_EPOCH   = 314
BSTAR          = -.55713741E-2
MEAN_MOTION_DOT = -.1325799E-1
MEAN_MOTION_DDOT = 0

CCSDS_OMM_VERS = 2.0
CREATION_DATE  = 
ORIGINATOR     = 

OBJECT_NAME    = STARLINK-35515
OBJECT_ID      = 2025-263D
CENTER_NAME    = EARTH
REF_FRAME      = TEME
TIME_SYSTEM    = UTC
MEAN_ELEMENT_THEORY = SGP/SGP4

EPOCH          = 2025-11-27T06:00:02.000160
MEAN_MOTION    = 15.87208052
ECCENTRICITY   = .00019751
INCLINATION    = 42.9976
RA_OF_ASC_NODE = 217.7516
ARG_OF_PERICENTER = 278.2039
MEAN_ANOMALY   = 106.8837

EPHEMERIS_TYPE = 0
CLASSIFICATION_TYPE = U
NORAD_CAT_ID   = 66488
ELEMENT_SET_NO = 999
REV_AT_EPOCH   = 314
BSTAR          = -.55862054E-2
MEAN_MOTION_DOT = -.132916E-1
MEAN_MOTION_DDOT = 0

CCSDS_OMM_VERS = 2.0
CREATION_DATE  = 
ORIGINATOR     = 

OBJECT_NAME    = STARLINK-35696
OBJECT_ID      = 2025-263E
CENTER_NAME    = EARTH
REF_FRAME      = TEME
TIME_SYSTEM    = UTC
MEAN_ELEMENT_THEORY = SGP/SGP4

EPOCH          = 2025-11-27T06:00:02.000160
MEAN_MOTION    = 15.87204951
ECCENTRICITY   = .00019719
INCLINATION    = 42.9975
RA_OF_ASC_NODE = 217.7446
ARG_OF_PERICENTER = 274.6989
MEAN_ANOMALY   = 113.0751

EPHEMERIS_TYPE = 0
CLASSIFICATION_TYPE = U
NORAD_CAT_ID   = 66489
ELEMENT_SET_NO = 999
REV_AT_EPOCH   = 314
BSTAR          = -.56324465E-2
MEAN_MOTION_DOT = -.1338629E-1
MEAN_MOTION_DDOT = 0

CCSDS_OMM_VERS = 2.0
CREATION_DATE  = 
ORIGINATOR     = 

OBJECT_NAME    = STARLINK-35693
OBJECT_ID      = 2025-263F
CENTER_NAME    = EARTH
REF_FRAME      = TEME
TIME_SYSTEM    = UTC
MEAN_ELEMENT_THEORY = SGP/SGP4

EPOCH          = 2025-11-27T06:00:02.000160
MEAN_MOTION    = 15.87184197
ECCENTRICITY   = .00019832
INCLINATION    = 42.9976
RA_OF_ASC_NODE = 217.7366
ARG_OF_PERICENTER = 272.7691
MEAN_ANOMALY   = 118.1553

EPHEMERIS_TYPE = 0
CLASSIFICATION_TYPE = U
NORAD_CAT_ID   = 66490
ELEMENT_SET_NO = 999
REV_AT_EPOCH   = 314
BSTAR          = -.56727089E-2
MEAN_MOTION_DOT = -.13458E-1
MEAN_MOTION_DDOT = 0

CCSDS_OMM_VERS = 2.0
CREATION_DATE  = 
ORIGINATOR     = 

OBJECT_NAME    = STARLINK-35663
OBJECT_ID      = 2025-263G
CENTER_NAME    = EARTH
REF_FRAME      = TEME
TIME_SYSTEM    = UTC
MEAN_ELEMENT_THEORY = SGP/SGP4

EPOCH          = 2025-11-27T06:00:02.000160
MEAN_MOTION    = 15.87201427
ECCENTRICITY   = .00019389
INCLINATION    = 42.9976
RA_OF_ASC_NODE = 217.7246
ARG_OF_PERICENTER = 273.4592
MEAN_ANOMALY   = 122.2058

EPHEMERIS_TYPE = 0
CLASSIFICATION_TYPE = U
NORAD_CAT_ID   = 66491
ELEMENT_SET_NO = 999
REV_AT_EPOCH   = 314
BSTAR          = -.57499181E-2
MEAN_MOTION_DOT = -.1362818E-1
MEAN_MOTION_DDOT = 0

CCSDS_OMM_VERS = 2.0
CREATION_DATE  = 
ORIGINATOR     = 

OBJECT_NAME    = STARLINK-35673
OBJECT_ID      = 2025-263H
CENTER_NAME    = EARTH
REF_FRAME      = TEME
TIME_SYSTEM    = UTC
MEAN_ELEMENT_THEORY = SGP/SGP4

EPOCH          = 2025-11-27T06:00:02.000160
MEAN_MOTION    = 15.87204924
ECCENTRICITY   = .00018764
INCLINATION    = 42.9976
RA_OF_ASC_NODE = 217.7183
ARG_OF_PERICENTER = 276.7806
MEAN_ANOMALY   = 121.3603

EPHEMERIS_TYPE = 0
CLASSIFICATION_TYPE = U
NORAD_CAT_ID   = 66492
ELEMENT_SET_NO = 999
REV_AT_EPOCH   = 314
BSTAR          = -.57708037E-2
MEAN_MOTION_DOT = -.1367305E-1
MEAN_MOTION_DDOT = 0

CCSDS_OMM_VERS = 2.0
CREATION_DATE  = 
ORIGINATOR     = 

OBJECT_NAME    = STARLINK-35597
OBJECT_ID      = 2025-263J
CENTER_NAME    = EARTH
REF_FRAME      = TEME
TIME_SYSTEM    = UTC
MEAN_ELEMENT_THEORY = SGP/SGP4

EPOCH          = 2025-11-27T06:00:02.000160
MEAN_MOTION    = 15.87185921
ECCENTRICITY   = .00019703
INCLINATION    = 42.9976
RA_OF_ASC_NODE = 217.7109
ARG_OF_PERICENTER = 274.9690
MEAN_ANOMALY   = 126.0934

EPHEMERIS_TYPE = 0
CLASSIFICATION_TYPE = U
NORAD_CAT_ID   = 66493
ELEMENT_SET_NO = 999
REV_AT_EPOCH   = 314
BSTAR          = -.57582404E-2
MEAN_MOTION_DOT = -.1363642E-1
MEAN_MOTION_DDOT = 0

